[
  {
    "ZipCode": 1000,
    "Name": "София"
  },
  {
    "ZipCode": 1280,
    "Name": "Нови Искър"
  },
  {
    "ZipCode": 1320,
    "Name": "Банкя"
  },
  {
    "ZipCode": 1830,
    "Name": "Бухово"
  },
  {
    "ZipCode": 2000,
    "Name": "Самоков"
  },
  {
    "ZipCode": 2030,
    "Name": "Костенец"
  },
  {
    "ZipCode": 2040,
    "Name": "Долна Баня"
  },
  {
    "ZipCode": 2050,
    "Name": "Ихтиман"
  },
  {
    "ZipCode": 2070,
    "Name": "Пирдоп"
  },
  {
    "ZipCode": 2077,
    "Name": "Копривщица"
  },
  {
    "ZipCode": 2080,
    "Name": "Златица"
  },
  {
    "ZipCode": 2100,
    "Name": "Елин Пелин"
  },
  {
    "ZipCode": 2110,
    "Name": "Нови хан"
  },
  {
    "ZipCode": 2140,
    "Name": "Ботевград"
  },
  {
    "ZipCode": 2161,
    "Name": "Правец"
  },
  {
    "ZipCode": 2180,
    "Name": "Етрополе"
  },
  {
    "ZipCode": 2200,
    "Name": "Сливница"
  },
  {
    "ZipCode": 2210,
    "Name": "Драгоман"
  },
  {
    "ZipCode": 2227,
    "Name": "Божурище"
  },
  {
    "ZipCode": 2230,
    "Name": "Костинброд"
  },
  {
    "ZipCode": 2240,
    "Name": "Годеч"
  },
  {
    "ZipCode": 2260,
    "Name": "Своге"
  },
  {
    "ZipCode": 2300,
    "Name": "Перник"
  },
  {
    "ZipCode": 2340,
    "Name": "Батановци"
  },
  {
    "ZipCode": 2360,
    "Name": "Брезник"
  },
  {
    "ZipCode": 2400,
    "Name": "Радомир"
  },
  {
    "ZipCode": 2440,
    "Name": "Земен"
  },
  {
    "ZipCode": 2460,
    "Name": "Трън"
  },
  {
    "ZipCode": 2500,
    "Name": "Кюстендил"
  },
  {
    "ZipCode": 2600,
    "Name": "Дупница"
  },
  {
    "ZipCode": 2630,
    "Name": "Рила"
  },
  {
    "ZipCode": 2640,
    "Name": "Кочериново"
  },
  {
    "ZipCode": 2650,
    "Name": "Сапарева баня"
  },
  {
    "ZipCode": 2660,
    "Name": "Бобошево"
  },
  {
    "ZipCode": 2670,
    "Name": "Бобов дол"
  },
  {
    "ZipCode": 2700,
    "Name": "Благоевград"
  },
  {
    "ZipCode": 2730,
    "Name": "Симитли"
  },
  {
    "ZipCode": 2760,
    "Name": "Разлог"
  },
  {
    "ZipCode": 2770,
    "Name": "Банско"
  },
  {
    "ZipCode": 2780,
    "Name": "Белица"
  },
  {
    "ZipCode": 2790,
    "Name": "Якоруда"
  },
  {
    "ZipCode": 2800,
    "Name": "Сандански"
  },
  {
    "ZipCode": 2820,
    "Name": "Мелник"
  },
  {
    "ZipCode": 2840,
    "Name": "Кресна"
  },
  {
    "ZipCode": 2850,
    "Name": "Петрич"
  },
  {
    "ZipCode": 2900,
    "Name": "Гоце Делчев"
  },
  {
    "ZipCode": 2933,
    "Name": "Хаджидимово"
  },
  {
    "ZipCode": 3000,
    "Name": "Враца"
  },
  {
    "ZipCode": 3060,
    "Name": "Криводол"
  },
  {
    "ZipCode": 3100,
    "Name": "Мездра"
  },
  {
    "ZipCode": 3130,
    "Name": "Роман"
  },
  {
    "ZipCode": 3200,
    "Name": "Бяла Слатина"
  },
  {
    "ZipCode": 3300,
    "Name": "Оряхово"
  },
  {
    "ZipCode": 3320,
    "Name": "Козлодуй"
  },
  {
    "ZipCode": 3330,
    "Name": "Мизия"
  },
  {
    "ZipCode": 3400,
    "Name": "Монтана"
  },
  {
    "ZipCode": 3430,
    "Name": "Бойчиновци"
  },
  {
    "ZipCode": 3460,
    "Name": "Чипровци"
  },
  {
    "ZipCode": 3500,
    "Name": "Берковица"
  },
  {
    "ZipCode": 3540,
    "Name": "Вършец"
  },
  {
    "ZipCode": 3600,
    "Name": "Лом"
  },
  {
    "ZipCode": 3650,
    "Name": "Вълчедрум"
  },
  {
    "ZipCode": 3680,
    "Name": "Брусарци"
  },
  {
    "ZipCode": 3700,
    "Name": "Видин"
  },
  {
    "ZipCode": 3740,
    "Name": "Дунавци"
  },
  {
    "ZipCode": 3750,
    "Name": "Димово"
  },
  {
    "ZipCode": 3751,
    "Name": "Срацимирово"
  },
  {
    "ZipCode": 3790,
    "Name": "Брегово"
  },
  {
    "ZipCode": 3800,
    "Name": "Кула"
  },
  {
    "ZipCode": 3830,
    "Name": "Грамада"
  },
  {
    "ZipCode": 3831,
    "Name": "Водна"
  },
  {
    "ZipCode": 3832,
    "Name": "Бояново"
  },
  {
    "ZipCode": 3833,
    "Name": "Коста Перчево"
  },
  {
    "ZipCode": 3834,
    "Name": "Шишенци"
  },
  {
    "ZipCode": 3835,
    "Name": "Градсковски колиби"
  },
  {
    "ZipCode": 3836,
    "Name": "Шипикова махала"
  },
  {
    "ZipCode": 3838,
    "Name": "Бориловец"
  },
  {
    "ZipCode": 3839,
    "Name": "Големаново"
  },
  {
    "ZipCode": 3840,
    "Name": "Бойница"
  },
  {
    "ZipCode": 3841,
    "Name": "Периловец"
  },
  {
    "ZipCode": 3842,
    "Name": "Раброво"
  },
  {
    "ZipCode": 3843,
    "Name": "Каниц"
  },
  {
    "ZipCode": 3845,
    "Name": "Медешевци"
  },
  {
    "ZipCode": 3846,
    "Name": "Милчина лъка"
  },
  {
    "ZipCode": 3847,
    "Name": "Срацимирово"
  },
  {
    "ZipCode": 3900,
    "Name": "Белоградчик"
  },
  {
    "ZipCode": 4000,
    "Name": "Пловдив"
  },
  {
    "ZipCode": 4122,
    "Name": "Садово"
  },
  {
    "ZipCode": 4150,
    "Name": "Раковски"
  },
  {
    "ZipCode": 4160,
    "Name": "Брезово"
  },
  {
    "ZipCode": 4180,
    "Name": "Хисаря"
  },
  {
    "ZipCode": 4190,
    "Name": "Съединение"
  },
  {
    "ZipCode": 4210,
    "Name": "Стамболийски"
  },
  {
    "ZipCode": 4220,
    "Name": "Кричим"
  },
  {
    "ZipCode": 4225,
    "Name": "Перущица"
  },
  {
    "ZipCode": 4230,
    "Name": "Асеновград"
  },
  {
    "ZipCode": 4241,
    "Name": "Лъки"
  },
  {
    "ZipCode": 4270,
    "Name": "Първомай"
  },
  {
    "ZipCode": 4300,
    "Name": "Карлово"
  },
  {
    "ZipCode": 4330,
    "Name": "Сопот"
  },
  {
    "ZipCode": 4341,
    "Name": "Клисура"
  },
  {
    "ZipCode": 4360,
    "Name": "Баня"
  },
  {
    "ZipCode": 4370,
    "Name": "Калофер"
  },
  {
    "ZipCode": 4400,
    "Name": "Пазарджик"
  },
  {
    "ZipCode": 4470,
    "Name": "Белово"
  },
  {
    "ZipCode": 4480,
    "Name": "Ветрен"
  },
  {
    "ZipCode": 4490,
    "Name": "Септември"
  },
  {
    "ZipCode": 4500,
    "Name": "Панагюрище"
  },
  {
    "ZipCode": 4530,
    "Name": "Стрелча"
  },
  {
    "ZipCode": 4550,
    "Name": "Пещера"
  },
  {
    "ZipCode": 4579,
    "Name": "Брацигово"
  },
  {
    "ZipCode": 4580,
    "Name": "Батак"
  },
  {
    "ZipCode": 4600,
    "Name": "Велинград"
  },
  {
    "ZipCode": 4633,
    "Name": "Сърница"
  },
  {
    "ZipCode": 4640,
    "Name": "Ракитово"
  },
  {
    "ZipCode": 4644,
    "Name": "Костандово"
  },
  {
    "ZipCode": 4700,
    "Name": "Смолян"
  },
  {
    "ZipCode": 4800,
    "Name": "Девин"
  },
  {
    "ZipCode": 4831,
    "Name": "Доспат"
  },
  {
    "ZipCode": 4850,
    "Name": "Чепеларе"
  },
  {
    "ZipCode": 4900,
    "Name": "Мадан"
  },
  {
    "ZipCode": 4960,
    "Name": "Рудозем"
  },
  {
    "ZipCode": 4980,
    "Name": "Златоград"
  },
  {
    "ZipCode": 4990,
    "Name": "Неделино"
  },
  {
    "ZipCode": 5000,
    "Name": "Велико Търново"
  },
  {
    "ZipCode": 5030,
    "Name": "Дебелец"
  },
  {
    "ZipCode": 5050,
    "Name": "Килифарево"
  },
  {
    "ZipCode": 5070,
    "Name": "Елена"
  },
  {
    "ZipCode": 5090,
    "Name": "Златарица"
  },
  {
    "ZipCode": 5100,
    "Name": "Горна Оряховица"
  },
  {
    "ZipCode": 5130,
    "Name": "Долна Оряховица"
  },
  {
    "ZipCode": 5140,
    "Name": "Лясковец"
  },
  {
    "ZipCode": 5150,
    "Name": "Стражица"
  },
  {
    "ZipCode": 5180,
    "Name": "Полски Тръмбеш"
  },
  {
    "ZipCode": 5200,
    "Name": "Павликени"
  },
  {
    "ZipCode": 5220,
    "Name": "Бяла Черква"
  },
  {
    "ZipCode": 5240,
    "Name": "Сухиндол"
  },
  {
    "ZipCode": 5250,
    "Name": "Свищов"
  },
  {
    "ZipCode": 5300,
    "Name": "Габрово"
  },
  {
    "ZipCode": 5350,
    "Name": "Трявна"
  },
  {
    "ZipCode": 5360,
    "Name": "Плачковци"
  },
  {
    "ZipCode": 5370,
    "Name": "Дряново"
  },
  {
    "ZipCode": 5400,
    "Name": "Севлиево"
  },
  {
    "ZipCode": 5500,
    "Name": "Ловеч"
  },
  {
    "ZipCode": 5570,
    "Name": "Летница"
  },
  {
    "ZipCode": 5580,
    "Name": "Угърчин"
  },
  {
    "ZipCode": 5600,
    "Name": "Троян"
  },
  {
    "ZipCode": 5641,
    "Name": "Априлци"
  },
  {
    "ZipCode": 5700,
    "Name": "Тетевен"
  },
  {
    "ZipCode": 5750,
    "Name": "Ябланица"
  },
  {
    "ZipCode": 5770,
    "Name": "Луковит"
  },
  {
    "ZipCode": 5800,
    "Name": "Плевен"
  },
  {
    "ZipCode": 5835,
    "Name": "Кнежа"
  },
  {
    "ZipCode": 5840,
    "Name": "Славяново"
  },
  {
    "ZipCode": 5855,
    "Name": "Долна Митрополия"
  },
  {
    "ZipCode": 5857,
    "Name": "Тръстеник"
  },
  {
    "ZipCode": 5868,
    "Name": "Искър"
  },
  {
    "ZipCode": 5870,
    "Name": "Долни Дъбник"
  },
  {
    "ZipCode": 5898,
    "Name": "Пордим"
  },
  {
    "ZipCode": 5900,
    "Name": "Левски"
  },
  {
    "ZipCode": 5930,
    "Name": "Белене"
  },
  {
    "ZipCode": 5940,
    "Name": "Никопол"
  },
  {
    "ZipCode": 5960,
    "Name": "Гулянци"
  },
  {
    "ZipCode": 5980,
    "Name": "Червен бряг"
  },
  {
    "ZipCode": 5986,
    "Name": "Койнаре"
  },
  {
    "ZipCode": 6000,
    "Name": "Стара Загора"
  },
  {
    "ZipCode": 6011,
    "Name": "Зора"
  },
  {
    "ZipCode": 6100,
    "Name": "Казанлък"
  },
  {
    "ZipCode": 6150,
    "Name": "Шипка"
  },
  {
    "ZipCode": 6155,
    "Name": "Павел баня"
  },
  {
    "ZipCode": 6180,
    "Name": "Мъглиж"
  },
  {
    "ZipCode": 6190,
    "Name": "Николаево"
  },
  {
    "ZipCode": 6199,
    "Name": "Гурково"
  },
  {
    "ZipCode": 6200,
    "Name": "Чирпан"
  },
  {
    "ZipCode": 6260,
    "Name": "Раднево"
  },
  {
    "ZipCode": 6280,
    "Name": "Гълъбово"
  },
  {
    "ZipCode": 6300,
    "Name": "Хасково"
  },
  {
    "ZipCode": 6400,
    "Name": "Димитровград"
  },
  {
    "ZipCode": 6430,
    "Name": "Меричлери"
  },
  {
    "ZipCode": 6450,
    "Name": "Харманли"
  },
  {
    "ZipCode": 6480,
    "Name": "Маджарово"
  },
  {
    "ZipCode": 6490,
    "Name": "Симеоновград"
  },
  {
    "ZipCode": 6500,
    "Name": "Свиленград"
  },
  {
    "ZipCode": 6550,
    "Name": "Любимец"
  },
  {
    "ZipCode": 6560,
    "Name": "Тополовград"
  },
  {
    "ZipCode": 6570,
    "Name": "Ивайловград"
  },
  {
    "ZipCode": 6600,
    "Name": "Кърджали"
  },
  {
    "ZipCode": 6750,
    "Name": "Ардино"
  },
  {
    "ZipCode": 6800,
    "Name": "Момчилград"
  },
  {
    "ZipCode": 6850,
    "Name": "Джебел"
  },
  {
    "ZipCode": 6900,
    "Name": "Крумовград"
  },
  {
    "ZipCode": 7000,
    "Name": "Русе"
  },
  {
    "ZipCode": 7060,
    "Name": "Сливо поле"
  },
  {
    "ZipCode": 7080,
    "Name": "Ветово"
  },
  {
    "ZipCode": 7100,
    "Name": "Бяла"
  },
  {
    "ZipCode": 7150,
    "Name": "Две могили"
  },
  {
    "ZipCode": 7174,
    "Name": "Борово"
  },
  {
    "ZipCode": 7200,
    "Name": "Разград"
  },
  {
    "ZipCode": 7271,
    "Name": "Сеново"
  },
  {
    "ZipCode": 7280,
    "Name": "Цар Калоян"
  },
  {
    "ZipCode": 7290,
    "Name": "Лозница"
  },
  {
    "ZipCode": 7294,
    "Name": "Глоджево"
  },
  {
    "ZipCode": 7300,
    "Name": "Кубрат"
  },
  {
    "ZipCode": 7330,
    "Name": "Завет"
  },
  {
    "ZipCode": 7400,
    "Name": "Исперих"
  },
  {
    "ZipCode": 7500,
    "Name": "Силистра"
  },
  {
    "ZipCode": 7570,
    "Name": "Алфатар"
  },
  {
    "ZipCode": 7600,
    "Name": "Тутракан"
  },
  {
    "ZipCode": 7630,
    "Name": "Главиница"
  },
  {
    "ZipCode": 7650,
    "Name": "Дулово"
  },
  {
    "ZipCode": 7700,
    "Name": "Търговище"
  },
  {
    "ZipCode": 7800,
    "Name": "Попово"
  },
  {
    "ZipCode": 7840,
    "Name": "Опака"
  },
  {
    "ZipCode": 7900,
    "Name": "Омуртаг"
  },
  {
    "ZipCode": 7970,
    "Name": "Антоново"
  },
  {
    "ZipCode": 8000,
    "Name": "Бургас"
  },
  {
    "ZipCode": 8110,
    "Name": "Българово"
  },
  {
    "ZipCode": 8120,
    "Name": "Камено"
  },
  {
    "ZipCode": 8130,
    "Name": "Созопол"
  },
  {
    "ZipCode": 8200,
    "Name": "Поморие"
  },
  {
    "ZipCode": 8210,
    "Name": "Каблешково"
  },
  {
    "ZipCode": 8230,
    "Name": "Несебър"
  },
  {
    "ZipCode": 8250,
    "Name": "Обзор"
  },
  {
    "ZipCode": 8260,
    "Name": "Царево"
  },
  {
    "ZipCode": 8280,
    "Name": "Ахтопол"
  },
  {
    "ZipCode": 8290,
    "Name": "Приморско"
  },
  {
    "ZipCode": 8300,
    "Name": "Средец"
  },
  {
    "ZipCode": 8162,
    "Name": "Малко Търново"
  },
  {
    "ZipCode": 8400,
    "Name": "Карнобат"
  },
  {
    "ZipCode": 8470,
    "Name": "Сунгурларе"
  },
  {
    "ZipCode": 8500,
    "Name": "Айтос"
  },
  {
    "ZipCode": 8600,
    "Name": "Ямбол"
  },
  {
    "ZipCode": 8680,
    "Name": "Стралджа"
  },
  {
    "ZipCode": 8700,
    "Name": "Елхово"
  },
  {
    "ZipCode": 8720,
    "Name": "Болярово"
  },
  {
    "ZipCode": 8800,
    "Name": "Сливен"
  },
  {
    "ZipCode": 8870,
    "Name": "Кермен"
  },
  {
    "ZipCode": 8890,
    "Name": "Твърдица"
  },
  {
    "ZipCode": 8895,
    "Name": "Шивачево"
  },
  {
    "ZipCode": 8900,
    "Name": "Нова Загора"
  },
  {
    "ZipCode": 8970,
    "Name": "Котел"
  },
  {
    "ZipCode": 9000,
    "Name": "Варна"
  },
  {
    "ZipCode": 9101,
    "Name": "Бяла"
  },
  {
    "ZipCode": 9120,
    "Name": "Долни Чифлик"
  },
  {
    "ZipCode": 9154,
    "Name": "Аксаково"
  },
  {
    "ZipCode": 9160,
    "Name": "Девня"
  },
  {
    "ZipCode": 9170,
    "Name": "Суворово"
  },
  {
    "ZipCode": 9178,
    "Name": "Белослав"
  },
  {
    "ZipCode": 9200,
    "Name": "Провадия"
  },
  {
    "ZipCode": 9250,
    "Name": "Дългопол"
  },
  {
    "ZipCode": 9280,
    "Name": "Вълчидол"
  },
  {
    "ZipCode": 9300,
    "Name": "Добрич"
  },
  {
    "ZipCode": 9450,
    "Name": "Тервел"
  },
  {
    "ZipCode": 9500,
    "Name": "Генерал Тошево"
  },
  {
    "ZipCode": 9600,
    "Name": "Балчик"
  },
  {
    "ZipCode": 9650,
    "Name": "Каварна"
  },
  {
    "ZipCode": 9680,
    "Name": "Шабла"
  },
  {
    "ZipCode": 9700,
    "Name": "Шумен"
  },
  {
    "ZipCode": 9820,
    "Name": "Смядово"
  },
  {
    "ZipCode": 9850,
    "Name": "Велики Преслав"
  },
  {
    "ZipCode": 9870,
    "Name": "Върбица"
  },
  {
    "ZipCode": 9900,
    "Name": "Нови Пазар"
  },
  {
    "ZipCode": 9920,
    "Name": "Плиска"
  },
  {
    "ZipCode": 9930,
    "Name": "Каспичан"
  },
  {
    "ZipCode": 9960,
    "Name": "Каолиново"
  }
]